OSCAR 7 (AO-7)          
1 07530U 74089B   21222.91353113 -.00000045  00000-0  62035-5 0  9999
2 07530 101.8580 197.3673 0011835 278.5835 138.1229 12.53649764138793
PHASE 3B (AO-10)        
1 14129U 83058B   21221.93580536 -.00000234  00000-0  00000-0 0  9998
2 14129  26.2082 146.1037 5996060 358.3705   0.2707  2.05870794258998
UOSAT 2 (UO-11)         
1 14781U 84021B   21222.96823300  .00000089  00000-0  16980-4 0  9991
2 14781  97.5945 220.1298 0006885 260.9629  99.0806 14.83310920994013
LUSAT (LO-19)           
1 20442U 90005G   21222.87995956 -.00000018  00000-0  10019-4 0  9998
2 20442  98.7448 178.8531 0011919   6.9278 353.2068 14.32993567648622
EYESAT A (AO-27)        
1 22825U 93061C   21222.95021267 -.00000012  00000-0  13476-4 0  9998
2 22825  98.9162 241.8987 0007554 231.5952 128.4551 14.30121237453779
ITAMSAT (IO-26)         
1 22826U 93061D   21222.83775812 -.00000011  00000-0  13836-4 0  9997
2 22826  98.9104 241.6870 0008251 218.2167 141.8431 14.30461139454258
RADIO ROSTO (RS-15)     
1 23439U 94085A   21222.89271478 -.00000037  00000-0  15882-3 0  9990
2 23439  64.8148 287.9154 0162542 325.6699  33.3806 11.27569921 96472
JAS-2 (FO-29)           
1 24278U 96046B   21222.42828294 -.00000036  00000-0  13349-6 0  9992
2 24278  98.5638 283.2410 0350477   9.9918 350.7960 13.53104790233546
TECHSAT 1B (GO-32)      
1 25397U 98043D   21222.59070009 -.00000019  00000-0  11229-4 0  9999
2 25397  98.7731 168.0025 0000449 347.0969  13.0198 14.23712967199193
ISS (ZARYA)             
1 25544U 98067A   21222.83226852  .00001026  00000-0  26843-4 0  9991
2 25544  51.6440  72.4933 0001275 279.9865 259.3030 15.48889717297065
PCSAT (NO-44)           
1 26931U 01043C   21222.91761810 -.00000019  00000-0  24366-4 0  9997
2 26931  67.0515 139.8774 0005739 263.6946  96.3501 14.30627747 36987
SAUDISAT 1C (SO-50)     
1 27607U 02058C   21222.91914982  .00000013  00000-0  22333-4 0  9990
2 27607  64.5548 171.7898 0047343   3.8411 356.3045 14.75774062  2545
CUTE-1 (CO-55)          
1 27844U 03031E   21222.92519551  .00000040  00000-0  37443-4 0  9997
2 27844  98.6802 230.3105 0008666 283.2126  76.8085 14.22324856939725
CUBESAT XI-IV (CO-57)   
1 27848U 03031J   21222.86424471  .00000027  00000-0  32122-4 0  9994
2 27848  98.6858 230.8117 0008666 298.5807  61.4498 14.21900163939541
MOZHAYETS 4 (RS-22)     
1 27939U 03042A   21222.87944254  .00000087  00000-0  24220-4 0  9990
2 27939  98.1487 359.6148 0014252 107.3520 252.9240 14.67009211955506
CUBESAT XI-V            
1 28895U 05043F   21222.90092796  .00000112  00000-0  30436-4 0  9999
2 28895  98.0660 354.9711 0017572  42.8905 317.3665 14.63942201841975
FALCONSAT-3             
1 30776U 07006E   21222.84783290  .00003499  00000-0  83120-4 0  9999
2 30776  35.4341 110.5085 0002021   5.1453 354.9296 15.41299861801506
CUTE-1.7+APD II (CO-65) 
1 32785U 08021C   21222.77404704  .00000220  00000-0  29181-4 0  9997
2 32785  97.6148 199.5211 0012914 176.2722 183.8594 14.88768135720327
DELFI-C3 (DO-64)        
1 32789U 08021G   21222.05645496  .00001712  00000-0  11132-3 0  9990
2 32789  97.3732 255.3551 0010446 325.3848  34.6701 15.09230108724919
SEEDS II (CO-66)        
1 32791U 08021J   21222.77277587  .00000512  00000-0  56475-4 0  9991
2 32791  97.5743 205.3768 0014125 139.9512 220.2751 14.91472593720871
YUBILEINY (RS-30)       
1 32953U 08025A   21222.71491842  .00000021  00000-0  80971-4 0  9994
2 32953  82.5049  17.1774 0019086 216.6574 143.3201 12.43103593599721
KKS-1 (KISEKI)          
1 33499U 09002H   21222.78447664  .00000105  00000-0  23257-4 0  9993
2 33499  98.2613  93.9446 0008064 221.9361 138.1230 14.75683456674426
SWISSCUBE               
1 35932U 09051B   21222.48709062  .00000117  00000-0  37369-4 0  9993
2 35932  98.6000  64.1981 0006383 285.6218  74.4275 14.56562646630865
BEESAT-1                
1 35933U 09051C   21222.45067011  .00000096  00000-0  32446-4 0  9999
2 35933  98.5959  65.9593 0004709 302.9764  57.0980 14.56616995630895
ITUPSAT1                
1 35935U 09051E   21222.48701468  .00000082  00000-0  29829-4 0  9991
2 35935  98.6062  66.1238 0007039 301.7768  58.2743 14.55747262630635
XIWANG-1 (HOPE-1)       
1 36122U 09072B   21222.72023264 -.00000043  00000-0 -22192-5 0  9997
2 36122 100.1341 201.1436 0007126 342.1765  17.9091 13.16361755560036
JUGNU                   
1 37839U 11058B   21222.79260274  .00000307  00000-0  21738-4 0  9996
2 37839  19.9605 259.6482 0018863 332.2264 185.0852 14.12720740508152
SRMSAT                  
1 37841U 11058D   21222.66926278  .00000303  00000-0  21042-4 0  9992
2 37841  19.9733 333.3970 0011777 168.9563 219.6005 14.10700528507302
M-CUBED & EXP-1 PRIME   
1 37855U 11061F   21222.83435853  .00001186  00000-0  64208-4 0  9995
2 37855 101.7133 174.4494 0165629 268.9082  89.3152 15.07995651534371
STRAND-1                
1 39090U 13009E   21222.78665660  .00000017  00000-0  20981-4 0  9999
2 39090  98.4248  63.6967 0010263 113.4726 246.7539 14.35171907442836
SOMP                    
1 39134U 13015E   21222.82414475  .00001796  00000-0  85019-4 0  9994
2 39134  64.8652 355.6144 0013836 318.7471  41.2611 15.22865063459497
BEESAT-3                
1 39135U 13015F   21222.61045761  .00001213  00000-0  66059-4 0  9997
2 39135  64.8666  26.3986 0010317 339.9681  20.1039 15.19593570458832
BEESAT-2                
1 39136U 13015G   21222.82912134  .00001173  00000-0  65276-4 0  9993
2 39136  64.8750  32.3110 0020714 242.5020 117.4001 15.18932175458725
ZACUBE-1 (TSHEPISOSAT)  
1 39417U 13066B   21222.88625704  .00000263  00000-0  39096-4 0  9991
2 39417  97.5963 204.4033 0058151 344.2877  15.6530 14.81563031417134
GOMX-1                  
1 39430U 13066Q   21222.75615742  .00000239  00000-0  52525-4 0  9998
2 39430  97.8127 142.7064 0149524 304.3363  54.3767 14.59652973410969
CUBEBUG-2 (LO-74)       
1 39440U 13066AA  21222.87954808  .00000240  00000-0  39937-4 0  9995
2 39440  97.6801 189.5508 0081192  59.4890 301.4304 14.76283893414459
FUNCUBE-1 (AO-73)       
1 39444U 13066AE  21222.70189946  .00000338  00000-0  47354-4 0  9994
2 39444  97.5866 206.6023 0056952 334.9116  24.9332 14.82481125415470
UWE-3                   
1 39446U 13066AG  21222.89405483  .00000270  00000-0  41991-4 0  9999
2 39446  97.6407 196.4373 0070311  23.0275 337.4062 14.78826276414550
SPROUT                  
1 39770U 14029E   21222.86007923  .00000745  00000-0  86052-4 0  9997
2 39770  97.9205 334.1035 0009721  36.2395 323.9473 14.88557221391430
UNISAT-6                
1 40012U 14033C   21222.79545856  .00000193  00000-0  35476-4 0  9998
2 40012  97.6733  62.3512 0059590  84.6692 276.1313 14.74352224384200
DUCHIFAT-1              
1 40021U 14033M   21222.61188559  .00000362  00000-0  42065-4 0  9992
2 40021  97.9737 163.3871 0012639 353.1373   6.9670 14.91416423388356
QB50P1                  
1 40025U 14033R   21222.63270996  .00000370  00000-0  44785-4 0  9995
2 40025  97.9327 153.4650 0012586   7.3177 352.8221 14.89496129387487
NUDT-PHONESAT           
1 40900U 15049B   21222.85348703  .00003517  00000-0  13586-3 0  9991
2 40900  97.4192 236.6197 0010244 314.6802 169.6942 15.26878431327123
ZDPS 2A                 
1 40901U 15049C   21222.85281458  .00001731  00000-0  84056-4 0  9992
2 40901  97.4620 229.4158 0012881   0.0858 120.4146 15.19744593326238
ZDPS 2B                 
1 40902U 15049D   21222.83114762  .00001749  00000-0  84829-4 0  9991
2 40902  97.4663 226.7671 0012749 357.7760 124.5701 15.19784939326200
XW-2A                   
1 40903U 15049E   21222.82416448  .00003581  00000-0  75775-4 0  9993
2 40903  97.2323 277.1416 0012519 168.4834 304.9158 15.45721774331194
KAITUO 1A               
1 40904U 15049F   21222.86710859  .00000831  00000-0  46296-4 0  9992
2 40904  97.4868 223.9764 0014851  16.1139 101.6451 15.16286979325781
2015-049G               
1 40905U 15049G   21222.81462128  .00000545  00000-0  32628-4 0  9997
2 40905  97.5017 221.0266 0015878  15.6893 106.2182 15.15076173325566
XW-2C                   
1 40906U 15049H   21222.79405326  .00001037  00000-0  55983-4 0  9998
2 40906  97.4868 224.4719 0014671   6.0328 118.0712 15.16864785325809
XW-2D                   
1 40907U 15049J   21222.84195781  .00000929  00000-0  50064-4 0  9990
2 40907  97.4857 224.3328 0013930   2.6214 118.4852 15.17200506325845
LILACSAT-2              
1 40908U 15049K   21222.86406461  .00000730  00000-0  43122-4 0  9990
2 40908  97.5058 222.1204 0016097  17.9501 101.6392 15.14513345325460
XW-2F                   
1 40910U 15049M   21222.85893699  .00001614  00000-0  79735-4 0  9996
2 40910  97.4727 227.5103 0013791 348.0414 131.5054 15.19242157325980
XW-2B                   
1 40911U 15049N   21222.84744596  .00000958  00000-0  51642-4 0  9994
2 40911  97.4849 225.0114 0013786   3.6317 115.7978 15.17116086325732
KAITUO 1B               
1 40912U 15049P   21222.83172775  .00001745  00000-0  79836-4 0  9998
2 40912  97.4447 231.8648 0012887 317.6404 166.8716 15.21808893326467
TIANWANG 1A (TW-1A)     
1 40928U 15051D   21222.90117193  .00005587  00000-0  11417-3 0  9997
2 40928  97.0738 246.5081 0011324  93.2919  26.9394 15.46479735330100
LAPAN-A2                
1 40931U 15052B   21221.56236689  .00000702  00000-0  87240-5 0  9998
2 40931   5.9982 233.5967 0012856  74.4310 285.7377 14.76683969317164
E-ST@R-II               
1 41459U 16025D   21222.61876587  .00001424  00000-0  73187-4 0  9995
2 41459  98.1481   2.0792 0158152 239.7242 118.8254 15.08302081290588
AAUSAT 4                
1 41460U 16025E   21222.86655961  .00004359  00000-0  20350-3 0  9998
2 41460  98.1475   6.4978 0145258 221.7347 137.2763 15.11508508290932
NUSAT-1 (FRESCO)        
1 41557U 16033B   21222.89476281  .00002027  00000-0  72908-4 0  9990
2 41557  97.3949 316.5385 0013994  47.3036  62.7817 15.29711666289852
